NORAD_CAT_ID,OBJECT_NAME,OBJECT_TYPE,EPOCH,MEAN_MOTION,ECCENTRICITY,INCLINATION,RA_OF_ASC_NODE,ARG_OF_PERICENTER,MEAN_ANOMALY,BSTAR,MEAN_MOTION_DOT,MEAN_MOTION_DDOT,TLE_LINE0,TLE_LINE1,TLE_LINE2,SEMIMAJOR_AXIS,PERIOD,APOGEE,PERIGEE,DECAYED
56498.0,STARLINK-5522,PAYLOAD,2023-09-14 09:09:44,15.69929595,0.0003107,69.9994,249.1797,267.8106,92.2733,1.4622e-05,1.546e-05,0.0,0 STARLINK-5522,1 56498U 23064BC  23257.38176895  .00001546  00000-0  14622-4 0  9998,2 56498  69.9994 249.1797 0003107 267.8106  92.2733 15.69929595 19905,6737.235,91.724,361.194,357.007,0.0
56498.0,STARLINK-5522,PAYLOAD,2023-09-14 16:48:30,15.69922768,0.0003072,69.9995,248.2841,267.6607,92.4237,1.9994e-05,2.192e-05,0.0,0 STARLINK-5522,1 56498U 23064BC  23257.70035688  .00002192  00000-0  19994-4 0  9993,2 56498  69.9995 248.2841 0003072 267.6607  92.4237 15.69922768 19952,6737.255,91.724,361.19,357.05,0.0
56498.0,STARLINK-5522,PAYLOAD,2023-09-15 09:37:46,15.69931217,0.0002926,69.9994,246.3138,260.8945,99.192,5.9476e-06,5.03e-06,0.0,0 STARLINK-5522,1 56498U 23064BC  23258.40123533  .00000503  00000-0  59476-5 0  9992,2 56498  69.9994 246.3138 0002926 260.8945  99.1920 15.69931217 20411,6737.231,91.724,361.067,357.124,0.0
56498.0,STARLINK-5522,PAYLOAD,2023-09-16 00:53:42,15.71285174,0.0008344,69.9993,244.518,234.3874,125.6546,0.0014832,0.00193182,0.0,0 STARLINK-5522,1 56498U 23064BC  23259.03729388  .00193182  00000-0  14832-2 0  9992,2 56498  69.9993 244.5180 0008344 234.3874 125.6546 15.71285174 20511,6733.36,91.645,360.843,349.607,0.0
56498.0,STARLINK-5522,PAYLOAD,2023-09-16 14:00:01,15.69942299,0.000325,70.0009,242.9896,272.1276,286.8505,-0.00032001,-0.00038543,0.0,0 STARLINK-5522,1 56498U 23064BC  23259.58334491 -.00038543  00000-0 -32001-3 0  9999,2 56498  70.0009 242.9896 0003250 272.1276 286.8505 15.69942299 20605,6737.199,91.723,361.254,356.874,0.0
56498.0,STARLINK-5522,PAYLOAD,2023-09-16 16:12:47,15.69948668,0.0003072,69.9981,242.7304,267.5887,92.4957,2.9026e-05,3.282e-05,0.0,0 STARLINK-5522,1 56498U 23064BC  23259.67555279  .00003282  00000-0  29026-4 0  9992,2 56498  69.9981 242.7304 0003072 267.5887  92.4957 15.69948668 20610,6737.181,91.723,361.116,356.976,0.0
56498.0,STARLINK-5522,PAYLOAD,2023-09-17 01:23:08,15.70042357,0.0003195,70.0,241.6564,222.4587,137.6362,0.00011078,0.00013193,0.0,0 STARLINK-5522,1 56498U 23064BC  23260.05774115  .00013193  00000-0  11078-3 0  9997,2 56498  70.0000 241.6564 0003195 222.4587 137.6362 15.70042357 20674,6736.913,91.717,360.93,356.625,0.0
56498.0,STARLINK-5522,PAYLOAD,2023-09-17 12:05:36,15.69920387,0.0002887,69.9987,240.4033,279.8015,80.2854,-1.9265e-06,-4.44e-06,0.0,0 STARLINK-5522,1 56498U 23064BC  23260.50388943 -.00000444  00000-0 -19265-5 0  9992,2 56498  69.9987 240.4033 0002887 279.8015  80.2854 15.69920387 20396,6737.262,91.724,361.072,357.182,0.0
56498.0,STARLINK-5522,PAYLOAD,2023-09-18 01:51:23,15.69900393,0.0002606,70.0009,238.7896,273.4619,86.6279,-7.5406e-06,-1.118e-05,0.0,0 STARLINK-5522,1 56498U 23064BC  23261.07735086 -.00001118  00000-0 -75406-5 0  9997,2 56498  70.0009 238.7896 0002606 273.4619  86.6279 15.69900393 20835,6737.319,91.726,360.94,357.428,0.0
56498.0,STARLINK-5522,PAYLOAD,2023-09-18 09:30:07,15.69926611,0.0002845,69.9994,237.8956,268.5012,91.5858,8.447e-06,8.03e-06,0.0,0 STARLINK-5522,1 56498U 23064BC  23261.39592295  .00000803  00000-0  84470-5 0  9994,2 56498  69.9994 237.8956 0002845 268.5012  91.5858 15.69926611 20883,6737.244,91.724,361.026,357.192,0.0
56498.0,STARLINK-5522,PAYLOAD,2023-09-18 15:37:07,15.69934933,0.0003073,69.9982,237.178,269.1857,90.8987,-1.0937e-05,-1.528e-05,0.0,0 STARLINK-5522,1 56498U 23064BC  23261.65078697 -.00001528  00000-0 -10937-4 0  9991,2 56498  69.9982 237.1780 0003073 269.1857  90.8987 15.69934933 20573,6737.22,91.724,361.156,357.015,0.0
56498.0,STARLINK-5522,PAYLOAD,2023-09-19 08:26:24,15.69917911,0.0002927,69.9983,235.2076,278.621,81.4654,1.268e-05,1.312e-05,0.0,0 STARLINK-5522,1 56498U 23064BC  23262.35167385  .00001312  00000-0  12680-4 0  9998,2 56498  69.9983 235.2076 0002927 278.6210  81.4654 15.69917911 21032,6737.269,91.725,361.106,357.162,0.0
56498.0,STARLINK-5522,PAYLOAD,2023-09-20 01:15:42,15.69914766,0.0002773,69.9997,233.2373,276.4429,83.6451,-4.215e-06,-7.19e-06,0.0,0 STARLINK-5522,1 56498U 23064BC  23263.05257055 -.00000719  00000-0 -42150-5 0  9998,2 56498  69.9997 233.2373 0002773 276.4429  83.6451 15.69914766 21148,6737.278,91.725,361.011,357.275,0.0
56498.0,STARLINK-5522,PAYLOAD,2023-09-20 08:54:28,15.69908488,0.0003339,69.9983,232.3408,269.6334,90.4479,-1.0944e-05,-1.528e-05,0.0,0 STARLINK-5522,1 56498U 23064BC  23263.37115859 -.00001528  00000-0 -10944-4 0  9992,2 56498  69.9983 232.3408 0003339 269.6334  90.4479 15.69908488 20846,6737.296,91.725,361.41,356.911,0.0
56498.0,STARLINK-5522,PAYLOAD,2023-09-20 15:01:28,15.69915332,0.0003151,69.9986,231.6248,269.924,90.1594,-1.6113e-06,-4.06e-06,0.0,0 STARLINK-5522,1 56498U 23064BC  23263.62602154 -.00000406  00000-0 -16113-5 0  9998,2 56498  69.9986 231.6248 0003151 269.9240  90.1594 15.69915332 20889,6737.276,91.725,361.264,357.018,0.0
56498.0,STARLINK-5522,PAYLOAD,2023-09-21 00:11:58,15.69927124,0.0003536,69.9993,230.5495,283.5694,76.5107,-1.2586e-06,-3.64e-06,0.0,0 STARLINK-5522,1 56498U 23064BC  23264.00831406 -.00000364  00000-0 -12586-5 0  9998,2 56498  69.9993 230.5495 0003536 283.5694  76.5107 15.69927124 21297,6737.242,91.724,361.49,356.725,0.0
56498.0,STARLINK-5522,PAYLOAD,2023-09-21 07:50:43,15.69926781,0.000312,69.9987,229.6541,267.0325,93.0514,7.672e-07,-1.2e-06,0.0,0 STARLINK-5522,1 56498U 23064BC  23264.32689635 -.00000120  00000-0  76720-6 0  9998,2 56498  69.9987 229.6541 0003120 267.0325  93.0514 15.69926781 20998,6737.243,91.724,361.21,357.006,0.0
56498.0,STARLINK-5522,PAYLOAD,2023-09-21 15:29:29,15.69921744,0.0002874,69.9991,228.7577,265.8678,94.2189,1.1307e-05,1.147e-05,0.0,0 STARLINK-5522,1 56498U 23064BC  23264.64548210  .00001147  00000-0  11307-4 0  9993,2 56498  69.9991 228.7577 0002874 265.8678  94.2189 15.69921744 21046,6737.258,91.724,361.059,357.187,0.0
56498.0,STARLINK-5522,PAYLOAD,2023-09-22 00:40:00,15.69923176,0.0002907,69.999,227.683,268.0005,92.0857,1.7526e-05,1.895e-05,0.0,0 STARLINK-5522,1 56498U 23064BC  23265.02778167  .00001895  00000-0  17526-4 0  9991,2 56498  69.9990 227.6830 0002907 268.0005  92.0857 15.69923176 21455,6737.254,91.724,361.077,357.16,0.0
56498.0,STARLINK-5522,PAYLOAD,2023-09-22 06:47:00,15.69928448,0.000258,69.9998,226.9677,269.0507,91.0393,2.2348e-05,2.476e-05,0.0,0 STARLINK-5522,1 56498U 23064BC  23265.28264583  .00002476  00000-0  22348-4 0  9995,2 56498  69.9998 226.9677 0002580 269.0507  91.0393 15.69928448 21146,6737.239,91.724,360.842,357.366,0.0
56498.0,STARLINK-5522,PAYLOAD,2023-09-22 22:04:31,15.69933749,0.0002618,70.0001,225.1768,269.7161,90.3735,-5.1508e-06,-8.32e-06,0.0,0 STARLINK-5522,1 56498U 23064BC  23265.91981430 -.00000832  00000-0 -51508-5 0  9999,2 56498  70.0001 225.1768 0002618 269.7161  90.3735 15.69933749 21244,6737.224,91.724,360.852,357.325,0.0
56498.0,STARLINK-5522,PAYLOAD,2023-09-23 01:08:02,15.69932759,0.0002822,70.0002,224.8184,256.5957,103.4924,-6.8161e-06,-1.032e-05,0.0,0 STARLINK-5522,1 56498U 23064BC  23266.04724645 -.00001032  00000-0 -68161-5 0  9993,2 56498  70.0002 224.8184 0002822 256.5957 103.4924 15.69932759 21614,6737.226,91.724,360.993,357.19,0.0
56498.0,STARLINK-5522,PAYLOAD,2023-09-23 07:15:02,15.69929711,0.0003071,69.9975,224.0994,272.7394,87.345,4.7848e-07,-1.55e-06,0.0,0 STARLINK-5522,1 56498U 23064BC  23266.30211350 -.00000155  00000-0  47848-6 0  9990,2 56498  69.9975 224.0994 0003071 272.7394  87.3450 15.69929711 21307,6737.235,91.724,361.169,357.031,0.0
56498.0,STARLINK-5522,PAYLOAD,2023-09-24 00:04:19,15.69925998,0.0003171,69.9991,222.1291,266.4879,93.5954,7.3364e-06,6.7e-06,0.0,0 STARLINK-5522,1 56498U 23064BC  23267.00299916  .00000670  00000-0  73364-5 0  9994,2 56498  69.9991 222.1291 0003171 266.4879  93.5954 15.69925998 21764,6737.246,91.724,361.247,356.974,0.0
56498.0,STARLINK-5522,PAYLOAD,2023-09-24 07:43:04,15.6992992,0.0003235,69.999,221.2349,274.2043,85.8783,2.8271e-06,1.27e-06,0.0,0 STARLINK-5522,1 56498U 23064BC  23267.32158072  .00000127  00000-0  28271-5 0  9990,2 56498  69.9990 221.2349 0003235 274.2043  85.8783 15.69929920 21468,6737.234,91.724,361.279,356.92,0.0
56498.0,STARLINK-5522,PAYLOAD,2023-09-24 21:28:50,15.69926014,0.0003153,69.9997,219.6222,259.9578,100.1262,1.1435e-05,1.163e-05,0.0,0 STARLINK-5522,1 56498U 23064BC  23267.89503097  .00001163  00000-0  11435-4 0  9997,2 56498  69.9997 219.6222 0003153 259.9578 100.1262 15.69926014 21552,6737.246,91.724,361.235,356.986,0.0
56498.0,STARLINK-5522,PAYLOAD,2023-09-25 00:32:21,15.69915685,0.0004385,69.9986,219.2651,284.6228,75.4481,-2.4371e-06,-5.06e-06,0.0,0 STARLINK-5522,1 56498U 23064BC  23268.02247492 -.00000506  00000-0 -24371-5 0  9993,2 56498  69.9986 219.2651 0004385 284.6228  75.4481 15.69915685 21927,6737.275,91.725,362.095,356.186,0.0
56498.0,STARLINK-5522,PAYLOAD,2023-09-25 08:11:06,15.69933037,0.0003544,69.9997,218.3698,268.5601,91.5188,1.8773e-05,2.046e-05,0.0,0 STARLINK-5522,1 56498U 23064BC  23268.34104468  .00002046  00000-0  18773-4 0  9990,2 56498  69.9997 218.3698 0003544 268.5601  91.5188 15.69933037 21971,6737.226,91.724,361.478,356.703,0.0
56498.0,STARLINK-5522,PAYLOAD,2023-09-25 14:18:05,15.69946502,0.0003738,69.9976,217.6525,269.0334,91.0434,2.6115e-05,2.931e-05,0.0,0 STARLINK-5522,1 56498U 23064BC  23268.59589881  .00002931  00000-0  26115-4 0  9995,2 56498  69.9976 217.6525 0003738 269.0334  91.0434 15.69946502 22019,6737.187,91.723,361.57,356.534,0.0
56498.0,STARLINK-5522,PAYLOAD,2023-09-25 21:56:51,15.69942983,0.0002083,69.9998,216.7564,270.7308,89.3649,1.8944e-05,2.068e-05,0.0,0 STARLINK-5522,1 56498U 23064BC  23268.91448995  .00002068  00000-0  18944-4 0  9993,2 56498  69.9998 216.7564 0002083 270.7308  89.3649 15.69942983 21711,6737.197,91.723,360.465,357.659,0.0
